start=new Date('2022-02-06T00:00:00.000Z').valueOf();
sats=[{"PERIAPSIS":"546.248","MEAN_MOTION":"15.06402394","ELEMENT_SET_NO":"999","OBJECT_ID":"2021-024S","OBJECT_TYPE":"PAYLOAD","DECAY_DATE":null,"NORAD_CAT_ID":"47993","FILE":"3292934","INCLINATION":"53.0546","LAUNCH_DATE":"2021-03-24","MEAN_MOTION_DOT":"-0.00004582","GP_ID":"195377574","EPOCH":"2022-02-05T18:57:24.105312","CLASSIFICATION_TYPE":"U","MEAN_ELEMENT_THEORY":"SGP4","BSTAR":"-0.00028891000000","REV_AT_EPOCH":"4958","COUNTRY_CODE":"US","TLE_LINE1":"1 47993U 21024S   22036.78986233 -.00004582  00000-0 -28891-3 0  9992","RCS_SIZE":"LARGE","TIME_SYSTEM":"UTC","MEAN_MOTION_DDOT":"0.0000000000000","REF_FRAME":"TEME","RA_OF_ASC_NODE":"158.5168","MEAN_ANOMALY":"286.1791","TLE_LINE2":"2 47993  53.0546 158.5168 0001383  73.9350 286.1791 15.06402394 49587","ECCENTRICITY":"0.00013830","SITE":"AFETR","CENTER_NAME":"EARTH","EPHEMERIS_TYPE":"0","PERIOD":"95.592","APOAPSIS":"548.164","SEMIMAJOR_AXIS":"6925.341","ARG_OF_PERICENTER":"73.9350","OBJECT_NAME":"STARLINK-2273"},{"OBJECT_TYPE":"PAYLOAD","OBJECT_ID":"2021-024T","DECAY_DATE":null,"PERIAPSIS":"546.103","MEAN_MOTION":"15.06388308","ELEMENT_SET_NO":"999","GP_ID":"195377283","EPOCH":"2022-02-05T19:03:22.844160","CLASSIFICATION_TYPE":"U","MEAN_ELEMENT_THEORY":"SGP4","BSTAR":"-0.00006233000000","NORAD_CAT_ID":"47994","FILE":"3292935","INCLINATION":"53.0547","LAUNCH_DATE":"2021-03-24","MEAN_MOTION_DOT":"-0.00001210","TIME_SYSTEM":"UTC","REF_FRAME":"TEME","MEAN_MOTION_DDOT":"0.0000000000000","RA_OF_ASC_NODE":"173.4839","MEAN_ANOMALY":"274.4197","REV_AT_EPOCH":"4937","COUNTRY_CODE":"US","TLE_LINE1":"1 47994U 21024T   22036.79401440 -.00001210  00000-0 -62330-4 0  9998","RCS_SIZE":"LARGE","APOAPSIS":"548.396","SEMIMAJOR_AXIS":"6925.384","ARG_OF_PERICENTER":"85.6981","OBJECT_NAME":"STARLINK-2290","TLE_LINE2":"2 47994  53.0547 173.4839 0001656  85.6981 274.4197 15.06388308 49378","ECCENTRICITY":"0.00016560","SITE":"AFETR","CENTER_NAME":"EARTH","PERIOD":"95.593","EPHEMERIS_TYPE":"0"},{"OBJECT_NAME":"STARLINK-2309","APOAPSIS":"548.263","SEMIMAJOR_AXIS":"6925.387","ARG_OF_PERICENTER":"70.2628","EPHEMERIS_TYPE":"0","PERIOD":"95.593","SITE":"AFETR","CENTER_NAME":"EARTH","TLE_LINE2":"2 47995  53.0562 138.5893 0001460  70.2628 289.8518 15.06387528 49863","ECCENTRICITY":"0.00014600","RA_OF_ASC_NODE":"138.5893","MEAN_ANOMALY":"289.8518","REF_FRAME":"TEME","MEAN_MOTION_DDOT":"0.0000000000000","TIME_SYSTEM":"UTC","RCS_SIZE":"LARGE","TLE_LINE1":"1 47995U 21024U   22036.77232619 -.00006688  00000-0 -43066-3 0  9995","COUNTRY_CODE":"US","REV_AT_EPOCH":"4986","MEAN_ELEMENT_THEORY":"SGP4","BSTAR":"-0.00043066000000","CLASSIFICATION_TYPE":"U","GP_ID":"195375819","EPOCH":"2022-02-05T18:32:08.982816","MEAN_MOTION_DOT":"-0.00006688","LAUNCH_DATE":"2021-03-24","FILE":"3292852","INCLINATION":"53.0562","NORAD_CAT_ID":"47995","OBJECT_ID":"2021-024U","OBJECT_TYPE":"PAYLOAD","DECAY_DATE":null,"ELEMENT_SET_NO":"999","MEAN_MOTION":"15.06387528","PERIAPSIS":"546.241"},{"ELEMENT_SET_NO":"999","MEAN_MOTION":"15.35566653","PERIAPSIS":"457.330","OBJECT_TYPE":"PAYLOAD","OBJECT_ID":"2021-024V","DECAY_DATE":null,"MEAN_MOTION_DOT":"0.00083132","LAUNCH_DATE":"2021-03-24","INCLINATION":"53.0415","FILE":"3292853","NORAD_CAT_ID":"47996","MEAN_ELEMENT_THEORY":"SGP4","BSTAR":"0.00235500000000","CLASSIFICATION_TYPE":"U","GP_ID":"195375402","EPOCH":"2022-02-05T22:00:01.999584","RCS_SIZE":"LARGE","TLE_LINE1":"1 47996U 21024V   22036.91668981  .00083132  00000-0  23550-2 0  9999","COUNTRY_CODE":"US","REV_AT_EPOCH":"5060","RA_OF_ASC_NODE":"86.2727","MEAN_ANOMALY":"30.0046","REF_FRAME":"TEME","MEAN_MOTION_DDOT":"0.0000000000000","TIME_SYSTEM":"UTC","EPHEMERIS_TYPE":"0","PERIOD":"93.776","SITE":"AFETR","CENTER_NAME":"EARTH","TLE_LINE2":"2 47996  53.0415  86.2727 0002794 130.3685  30.0046 15.35566653 50604","ECCENTRICITY":"0.00027940","OBJECT_NAME":"STARLINK-2260","APOAPSIS":"461.150","SEMIMAJOR_AXIS":"6837.375","ARG_OF_PERICENTER":"130.3685"},{"MEAN_MOTION":"15.06399068","PERIAPSIS":"546.213","ELEMENT_SET_NO":"999","OBJECT_ID":"2021-024W","OBJECT_TYPE":"PAYLOAD","DECAY_DATE":null,"FILE":"3292853","INCLINATION":"53.0547","NORAD_CAT_ID":"47997","MEAN_MOTION_DOT":"-0.00001652","LAUNCH_DATE":"2021-03-24","GP_ID":"195375404","EPOCH":"2022-02-05T18:36:51.118560","MEAN_ELEMENT_THEORY":"SGP4","BSTAR":"-0.00009203300000","CLASSIFICATION_TYPE":"U","COUNTRY_CODE":"US","REV_AT_EPOCH":"4937","RCS_SIZE":"LARGE","TLE_LINE1":"1 47997U 21024W   22036.77559165 -.00001652  00000-0 -92033-4 0  9990","TIME_SYSTEM":"UTC","RA_OF_ASC_NODE":"173.5792","MEAN_ANOMALY":"275.1747","MEAN_MOTION_DDOT":"0.0000000000000","REF_FRAME":"TEME","TLE_LINE2":"2 47997  53.0547 173.5792 0001449  84.9408 275.1747 15.06399068 49370","ECCENTRICITY":"0.00014490","EPHEMERIS_TYPE":"0","PERIOD":"95.592","CENTER_NAME":"EARTH","SITE":"AFETR","APOAPSIS":"548.220","SEMIMAJOR_AXIS":"6925.351","ARG_OF_PERICENTER":"84.9408","OBJECT_NAME":"STARLINK-2266"},{"MEAN_ANOMALY":"281.4160","RA_OF_ASC_NODE":"148.9279","MEAN_MOTION_DDOT":"0.0000000000000","REF_FRAME":"TEME","TIME_SYSTEM":"UTC","RCS_SIZE":"LARGE","TLE_LINE1":"1 47998U 21024X   22036.69399454  .00012893  00000-0  88209-3 0  9991","COUNTRY_CODE":"US","REV_AT_EPOCH":"4970","OBJECT_NAME":"STARLINK-2296","SEMIMAJOR_AXIS":"6925.246","ARG_OF_PERICENTER":"78.6988","APOAPSIS":"548.093","PERIOD":"95.590","EPHEMERIS_TYPE":"0","SITE":"AFETR","CENTER_NAME":"EARTH","ECCENTRICITY":"0.00014180","TLE_LINE2":"2 47998  53.0546 148.9279 0001418  78.6988 281.4160 15.06433566 49703","DECAY_DATE":null,"OBJECT_ID":"2021-024X","OBJECT_TYPE":"PAYLOAD","ELEMENT_SET_NO":"999","MEAN_MOTION":"15.06433566","PERIAPSIS":"546.129","BSTAR":"0.00088209000000","MEAN_ELEMENT_THEORY":"SGP4","CLASSIFICATION_TYPE":"U","EPOCH":"2022-02-05T16:39:21.128256","GP_ID":"195375858","MEAN_MOTION_DOT":"0.00012893","LAUNCH_DATE":"2021-03-24","FILE":"3292855","INCLINATION":"53.0546","NORAD_CAT_ID":"47998"},{"SITE":"AFETR","CENTER_NAME":"EARTH","EPHEMERIS_TYPE":"0","PERIOD":"95.595","ECCENTRICITY":"0.00011850","TLE_LINE2":"2 47999  53.0548 119.4349 0001185  80.9500 183.7449 15.06356926  3599","OBJECT_NAME":"STARLINK-2218","SEMIMAJOR_AXIS":"6925.481","ARG_OF_PERICENTER":"80.9500","APOAPSIS":"548.166","TLE_LINE1":"1 47999U 21024Y   22036.58334491  .00025041  00000-0  16960-2 0  9993","RCS_SIZE":"LARGE","REV_AT_EPOCH":"359","COUNTRY_CODE":"US","MEAN_MOTION_DDOT":"0.0000000000000","REF_FRAME":"TEME","MEAN_ANOMALY":"183.7449","RA_OF_ASC_NODE":"119.4349","TIME_SYSTEM":"UTC","LAUNCH_DATE":"2021-03-24","MEAN_MOTION_DOT":"0.00025041","NORAD_CAT_ID":"47999","FILE":"3292709","INCLINATION":"53.0548","CLASSIFICATION_TYPE":"U","BSTAR":"0.00169600000000","MEAN_ELEMENT_THEORY":"SGP4","EPOCH":"2022-02-05T14:00:01.000224","GP_ID":"195367388","ELEMENT_SET_NO":"999","PERIAPSIS":"546.525","MEAN_MOTION":"15.06356926","DECAY_DATE":null,"OBJECT_TYPE":"PAYLOAD","OBJECT_ID":"2021-024Y"},{"TIME_SYSTEM":"UTC","RA_OF_ASC_NODE":"102.9230","MEAN_ANOMALY":"353.1540","MEAN_MOTION_DDOT":"0.0000000000000","REF_FRAME":"TEME","COUNTRY_CODE":"US","REV_AT_EPOCH":"5037","RCS_SIZE":"LARGE","TLE_LINE1":"1 48000U 21024Z   22036.91668981 -.00003406  00000-0 -20996-3 0  9996","APOAPSIS":"548.458","ARG_OF_PERICENTER":"42.7582","SEMIMAJOR_AXIS":"6925.389","OBJECT_NAME":"STARLINK-2270","TLE_LINE2":"2 48000  53.0541 102.9230 0001739  42.7582 353.1540 15.06386774 50370","ECCENTRICITY":"0.00017390","PERIOD":"95.593","EPHEMERIS_TYPE":"0","CENTER_NAME":"EARTH","SITE":"AFETR","OBJECT_ID":"2021-024Z","OBJECT_TYPE":"PAYLOAD","DECAY_DATE":null,"MEAN_MOTION":"15.06386774","PERIAPSIS":"546.050","ELEMENT_SET_NO":"999","GP_ID":"195375447","EPOCH":"2022-02-05T22:00:01.999584","MEAN_ELEMENT_THEORY":"SGP4","BSTAR":"-0.00020996000000","CLASSIFICATION_TYPE":"U","FILE":"3292855","INCLINATION":"53.0541","NORAD_CAT_ID":"48000","MEAN_MOTION_DOT":"-0.00003406","LAUNCH_DATE":"2021-03-24"},{"GP_ID":"195368390","EPOCH":"2022-02-05T14:00:01.000224","CLASSIFICATION_TYPE":"U","MEAN_ELEMENT_THEORY":"SGP4","BSTAR":"0.00185390000000","NORAD_CAT_ID":"48002","FILE":"3292709","INCLINATION":"53.0544","LAUNCH_DATE":"2021-03-24","MEAN_MOTION_DOT":"0.00027416","OBJECT_TYPE":"PAYLOAD","OBJECT_ID":"2021-024AB","DECAY_DATE":null,"PERIAPSIS":"546.236","MEAN_MOTION":"15.06368118","ELEMENT_SET_NO":"999","APOAPSIS":"548.386","SEMIMAJOR_AXIS":"6925.446","ARG_OF_PERICENTER":"68.8865","OBJECT_NAME":"STARLINK-2265","TLE_LINE2":"2 48002  53.0544 124.4251 0001552  68.8865 228.3278 15.06368118  3587","ECCENTRICITY":"0.00015520","SITE":"AFETR","CENTER_NAME":"EARTH","PERIOD":"95.594","EPHEMERIS_TYPE":"0","TIME_SYSTEM":"UTC","REF_FRAME":"TEME","MEAN_MOTION_DDOT":"0.0000000000000","RA_OF_ASC_NODE":"124.4251","MEAN_ANOMALY":"228.3278","REV_AT_EPOCH":"358","COUNTRY_CODE":"US","TLE_LINE1":"1 48002U 21024AB  22036.58334491  .00027416  00000-0  18539-2 0  9991","RCS_SIZE":"LARGE"},{"DECAY_DATE":null,"OBJECT_TYPE":"PAYLOAD","OBJECT_ID":"2021-024AC","ELEMENT_SET_NO":"999","PERIAPSIS":"546.133","MEAN_MOTION":"15.06401707","CLASSIFICATION_TYPE":"U","BSTAR":"-0.00003361900000","MEAN_ELEMENT_THEORY":"SGP4","EPOCH":"2022-02-05T17:53:42.978048","GP_ID":"195375868","LAUNCH_DATE":"2021-03-24","MEAN_MOTION_DOT":"-0.00000782","NORAD_CAT_ID":"48003","INCLINATION":"53.0555","FILE":"3292855","MEAN_MOTION_DDOT":"0.0000000000000","REF_FRAME":"TEME","MEAN_ANOMALY":"286.1999","RA_OF_ASC_NODE":"198.6993","TIME_SYSTEM":"UTC","TLE_LINE1":"1 48003U 21024AC  22036.74563632 -.00000782  00000-0 -33619-4 0  9998","RCS_SIZE":"LARGE","REV_AT_EPOCH":"4900","COUNTRY_CODE":"US","OBJECT_NAME":"STARLINK-2263","SEMIMAJOR_AXIS":"6925.343","ARG_OF_PERICENTER":"73.9160","APOAPSIS":"548.284","CENTER_NAME":"EARTH","SITE":"AFETR","PERIOD":"95.592","EPHEMERIS_TYPE":"0","ECCENTRICITY":"0.00015530","TLE_LINE2":"2 48003  53.0555 198.6993 0001553  73.9160 286.1999 15.06401707 49003"}];
